*******************************************************************************
Ephemeris / WWW_USER Fri Mar  7 11:12:02 2025 Pasadena, USA      / Horizons    
*******************************************************************************
Target body name: (2018 VX1)                      {source: JPL#7}
Center body name: Earth (399)                     {source: DE441}
Center-site name: Mauna Kea
*******************************************************************************
Start time      : A.D. 2018-Nov-23 03:51:00.0000 UT      
Stop  time      : A.D. 2018-Nov-23 16:25:00.0000 UT      
Step-size       : 1 minutes
*******************************************************************************
Target pole/equ : undefined
Target radii    : undefined                                                    
Center geodetic : 204.5278, 19.8260847, 4.21024   {E-lon(deg),Lat(deg),Alt(km)}
Center cylindric: 204.5278, 6006.35451, 2151.0229 {E-lon(deg),Dxy(km),Dz(km)}
Center pole/equ : ITRF93                          {East-longitude positive}
Center radii    : 6378.137, 6378.137, 6356.752 km {Equator_a, b, pole_c}       
Target primary  : Sun
Vis. interferer : MOON (R_eq= 1737.400) km        {source: DE441}
Rel. light bend : Sun                             {source: DE441}
Rel. lght bnd GM: 1.3271E+11 km^3/s^2                                          
Small-body perts: Yes                             {source: SB441-N16}
Atmos refraction: NO (AIRLESS)
RA format       : HMS
Time format     : CAL 
Calendar mode   : Mixed Julian/Gregorian
RTS-only print  : NO       
EOP file        : eop.250306.p250602                                           
EOP coverage    : DATA-BASED 1962-JAN-20 TO 2025-MAR-06. PREDICTS-> 2025-JUN-01
Units conversion: 1 au= 149597870.700 km, c= 299792.458 km/s, 1 day= 86400.0 s 
Table cut-offs 1: Elevation (-90.0deg=NO ),Airmass (>38.000=NO), Daylight (YES)
Table cut-offs 2: Solar elongation (  0.0,180.0=NO ),Local Hour Angle( 0.0=NO )
Table cut-offs 3: RA/DEC angular rate (     0.0=NO )                           
*******************************************************************************
Initial IAU76/J2000 heliocentric ecliptic osculating elements (au, days, deg.):
  EPOCH=  2458429.5 ! 2018-Nov-07.00 (TDB)         Residual RMS= .34243        
   EC= .3094465550301519   QR= .9449639043218054   TP= 2458464.0659233886      
   OM= 45.67874041641947   W=  38.97310343924259   IN= 3.356915226222919       
  Equivalent ICRF heliocentric cartesian coordinates (au, au/d):
   X= 7.224620352366717E-01  Y= 6.383229877646874E-01  Z= 2.747435985069854E-01
  VX=-1.546092850205216E-02 VY= 1.016746642579675E-02 VZ= 5.632057443641291E-03
Asteroid physical parameters (km, seconds, rotational period in hours):        
   GM= n.a.                RAD= n.a.               ROTPER= n.a.                
   H= 27.5                 G= .150                 B-V= n.a.                   
                           ALBEDO= n.a.            STYP= n.a.                  
*******************************************************************************
 Date__(UT)__HR:MN     R.A._________(ICRF)_________DEC
******************************************************
$$SOE
 2018-Nov-23 14:06  m  13 16 33.910196 +12 25 13.38778
 2018-Nov-23 14:07  m  13 16 33.903235 +12 25 12.72516
 2018-Nov-23 14:08  m  13 16 33.896035 +12 25 12.06244
 2018-Nov-23 14:09  m  13 16 33.888596 +12 25 11.39964
 2018-Nov-23 14:10  m  13 16 33.880919 +12 25 10.73674
 2018-Nov-23 14:11  m  13 16 33.873003 +12 25 10.07374
 2018-Nov-23 14:12  m  13 16 33.864849 +12 25 09.41064
 2018-Nov-23 14:13  m  13 16 33.856457 +12 25 08.74744
 2018-Nov-23 14:14  m  13 16 33.847828 +12 25 08.08413
 2018-Nov-23 14:15  m  13 16 33.838960 +12 25 07.42071
 2018-Nov-23 14:16  m  13 16 33.829856 +12 25 06.75717
 2018-Nov-23 14:17  m  13 16 33.820515 +12 25 06.09352
 2018-Nov-23 14:18  m  13 16 33.810937 +12 25 05.42975
 2018-Nov-23 14:19  m  13 16 33.801122 +12 25 04.76585
 2018-Nov-23 14:20  m  13 16 33.791072 +12 25 04.10183
 2018-Nov-23 14:21  m  13 16 33.780785 +12 25 03.43768
 2018-Nov-23 14:22  m  13 16 33.770263 +12 25 02.77339
 2018-Nov-23 14:23  m  13 16 33.759506 +12 25 02.10896
 2018-Nov-23 14:24  m  13 16 33.748513 +12 25 01.44440
 2018-Nov-23 14:25  m  13 16 33.737286 +12 25 00.77969
 2018-Nov-23 14:26  m  13 16 33.725824 +12 25 00.11484
 2018-Nov-23 14:27  m  13 16 33.714128 +12 24 59.44983
 2018-Nov-23 14:28  m  13 16 33.702198 +12 24 58.78468
 2018-Nov-23 14:29  m  13 16 33.690035 +12 24 58.11936
 2018-Nov-23 14:30  m  13 16 33.677638 +12 24 57.45389
 2018-Nov-23 14:31  m  13 16 33.665009 +12 24 56.78825
 2018-Nov-23 14:32  m  13 16 33.652146 +12 24 56.12245
 2018-Nov-23 14:33  m  13 16 33.639052 +12 24 55.45648
 2018-Nov-23 14:34  m  13 16 33.625725 +12 24 54.79034
 2018-Nov-23 14:35  m  13 16 33.612167 +12 24 54.12402
 2018-Nov-23 14:36  m  13 16 33.598377 +12 24 53.45752
 2018-Nov-23 14:37  m  13 16 33.584357 +12 24 52.79084
 2018-Nov-23 14:38  m  13 16 33.570105 +12 24 52.12398
 2018-Nov-23 14:39  m  13 16 33.555624 +12 24 51.45692
 2018-Nov-23 14:40  m  13 16 33.540912 +12 24 50.78968
 2018-Nov-23 14:41  m  13 16 33.525971 +12 24 50.12224
 2018-Nov-23 14:42  m  13 16 33.510801 +12 24 49.45460
 2018-Nov-23 14:43  m  13 16 33.495402 +12 24 48.78677
 2018-Nov-23 14:44  m  13 16 33.479775 +12 24 48.11873
 2018-Nov-23 14:45  m  13 16 33.463919 +12 24 47.45048
 2018-Nov-23 14:46  m  13 16 33.447836 +12 24 46.78202
 2018-Nov-23 14:47  m  13 16 33.431525 +12 24 46.11335
 2018-Nov-23 14:48  m  13 16 33.414988 +12 24 45.44446
 2018-Nov-23 14:49  m  13 16 33.398224 +12 24 44.77535
 2018-Nov-23 14:50  m  13 16 33.381234 +12 24 44.10602
 2018-Nov-23 14:51  m  13 16 33.364018 +12 24 43.43646
 2018-Nov-23 14:52  m  13 16 33.346577 +12 24 42.76667
 2018-Nov-23 14:53  m  13 16 33.328910 +12 24 42.09665
 2018-Nov-23 14:54  m  13 16 33.311020 +12 24 41.42640
 2018-Nov-23 14:55  m  13 16 33.292905 +12 24 40.75591
 2018-Nov-23 14:56  m  13 16 33.274567 +12 24 40.08518
 2018-Nov-23 14:57  m  13 16 33.256005 +12 24 39.41420
 2018-Nov-23 14:58  m  13 16 33.237221 +12 24 38.74297
 2018-Nov-23 14:59  m  13 16 33.218214 +12 24 38.07150
 2018-Nov-23 15:00  m  13 16 33.198985 +12 24 37.39977
 2018-Nov-23 15:01  m  13 16 33.179535 +12 24 36.72778
 2018-Nov-23 15:02  m  13 16 33.159864 +12 24 36.05553
 2018-Nov-23 15:03  m  13 16 33.139972 +12 24 35.38302
 2018-Nov-23 15:04  m  13 16 33.119861 +12 24 34.71025
 2018-Nov-23 15:05  m  13 16 33.099529 +12 24 34.03721
 2018-Nov-23 15:06  m  13 16 33.078979 +12 24 33.36389
 2018-Nov-23 15:07  m  13 16 33.058209 +12 24 32.69030
 2018-Nov-23 15:08  m  13 16 33.037222 +12 24 32.01643
 2018-Nov-23 15:09  m  13 16 33.016016 +12 24 31.34228
 2018-Nov-23 15:10  m  13 16 32.994594 +12 24 30.66785
 2018-Nov-23 15:11  m  13 16 32.972955 +12 24 29.99313
 2018-Nov-23 15:12  m  13 16 32.951099 +12 24 29.31812
 2018-Nov-23 15:13  m  13 16 32.929028 +12 24 28.64282
 2018-Nov-23 15:14  m  13 16 32.906741 +12 24 27.96722
 2018-Nov-23 15:15  m  13 16 32.884240 +12 24 27.29132
 2018-Nov-23 15:16  m  13 16 32.861524 +12 24 26.61512
 2018-Nov-23 15:17  m  13 16 32.838594 +12 24 25.93862
 2018-Nov-23 15:18  m  13 16 32.815452 +12 24 25.26181
 2018-Nov-23 15:19 Am  13 16 32.792096 +12 24 24.58469
 2018-Nov-23 15:20 Am  13 16 32.768529 +12 24 23.90725
 2018-Nov-23 15:21 Am  13 16 32.744749 +12 24 23.22950
 2018-Nov-23 15:22 Am  13 16 32.720759 +12 24 22.55143
 2018-Nov-23 15:23 Am  13 16 32.696558 +12 24 21.87304
 2018-Nov-23 15:24 Am  13 16 32.672147 +12 24 21.19432
 2018-Nov-23 15:25 Am  13 16 32.647526 +12 24 20.51528
 2018-Nov-23 15:26 Am  13 16 32.622697 +12 24 19.83590
 2018-Nov-23 15:27 Am  13 16 32.597659 +12 24 19.15620
 2018-Nov-23 15:28 Am  13 16 32.572413 +12 24 18.47615
 2018-Nov-23 15:29 Am  13 16 32.546960 +12 24 17.79577
 2018-Nov-23 15:30 Am  13 16 32.521300 +12 24 17.11504
 2018-Nov-23 15:31 Am  13 16 32.495434 +12 24 16.43397
 2018-Nov-23 15:32 Am  13 16 32.469363 +12 24 15.75255
 2018-Nov-23 15:33 Am  13 16 32.443086 +12 24 15.07078
 2018-Nov-23 15:34 Am  13 16 32.416605 +12 24 14.38865
 2018-Nov-23 15:35 Am  13 16 32.389921 +12 24 13.70617
 2018-Nov-23 15:36 Am  13 16 32.363033 +12 24 13.02334
 2018-Nov-23 15:37 Am  13 16 32.335942 +12 24 12.34014
 2018-Nov-23 15:38 Am  13 16 32.308649 +12 24 11.65657
 2018-Nov-23 15:39 Am  13 16 32.281155 +12 24 10.97264
 2018-Nov-23 15:40 Am  13 16 32.253460 +12 24 10.28834
 2018-Nov-23 15:41 Am  13 16 32.225565 +12 24 09.60366
 2018-Nov-23 15:42 Am  13 16 32.197470 +12 24 08.91861
 2018-Nov-23 15:43 Am  13 16 32.169176 +12 24 08.23318
 2018-Nov-23 15:44 Am  13 16 32.140684 +12 24 07.54737
 2018-Nov-23 15:45 Nm  13 16 32.111994 +12 24 06.86118
 2018-Nov-23 15:46 Nm  13 16 32.083106 +12 24 06.17460
 2018-Nov-23 15:47 Nm  13 16 32.054023 +12 24 05.48763
 2018-Nov-23 15:48 Nm  13 16 32.024743 +12 24 04.80027
 2018-Nov-23 15:49 Nm  13 16 31.995268 +12 24 04.11251
 2018-Nov-23 15:50 Nm  13 16 31.965599 +12 24 03.42436
 2018-Nov-23 15:51 Nm  13 16 31.935735 +12 24 02.73580
 2018-Nov-23 15:52 Nm  13 16 31.905679 +12 24 02.04685
 2018-Nov-23 15:53 Nm  13 16 31.875429 +12 24 01.35749
 2018-Nov-23 15:54 Nm  13 16 31.844988 +12 24 00.66772
 2018-Nov-23 15:55 Nm  13 16 31.814355 +12 23 59.97754
 2018-Nov-23 15:56 Nm  13 16 31.783532 +12 23 59.28695
 2018-Nov-23 15:57 Nm  13 16 31.752518 +12 23 58.59594
 2018-Nov-23 15:58 Nm  13 16 31.721316 +12 23 57.90452
 2018-Nov-23 15:59 Nm  13 16 31.689924 +12 23 57.21267
 2018-Nov-23 16:00 Nm  13 16 31.658345 +12 23 56.52040
 2018-Nov-23 16:01 Nm  13 16 31.626579 +12 23 55.82771
 2018-Nov-23 16:02 Nm  13 16 31.594625 +12 23 55.13458
 2018-Nov-23 16:03 Nm  13 16 31.562486 +12 23 54.44103
 2018-Nov-23 16:04 Nm  13 16 31.530162 +12 23 53.74704
 2018-Nov-23 16:05 Nm  13 16 31.497653 +12 23 53.05261
 2018-Nov-23 16:06 Nm  13 16 31.464960 +12 23 52.35775
 2018-Nov-23 16:07 Nm  13 16 31.432085 +12 23 51.66245
 2018-Nov-23 16:08 Nm  13 16 31.399026 +12 23 50.96670
